KUIPER-00230            
1 68579U 26072G   26107.87896177  .00012230  00000+0  32760-3 0  9999
2 68579  51.8754 108.4682 0001616 101.2995 258.8174 15.38406847  2101
KUIPER-00231            
1 68580U 26072H   26107.88331841  .00012206  00000+0  33123-3 0  9991
2 68580  51.8734 108.5035 0002719 125.3757 234.7485 15.38006246  2109
KUIPER-00234            
1 68581U 26072J   26107.88020007  .00012326  00000+0  32978-3 0  9991
2 68581  51.8745 108.4821 0002252 111.2821 248.8407 15.38434611  2103
KUIPER-00236            
1 68582U 26072K   26107.88076281  .00012050  00000+0  32369-3 0  9995
2 68582  51.8748 108.4840 0002679 116.0101 244.1162 15.38334505  2103
KUIPER-00244            
1 68583U 26072L   26107.88437885  .00011726  00000+0  31917-3 0  9994
2 68583  51.8745 108.5083 0003945 138.9534 221.1750 15.37949324  2109
KUIPER-00253            
1 68584U 26072M   26107.88814404 -.00000798  00000+0 -10816-4 0  9996
2 68584  51.8702 108.5351 0005450 147.7043 212.4278 15.37477116  2100
KUIPER-00254            
1 68585U 26072N   26107.89326558  .00010784  00000+0  30413-3 0  9994
2 68585  51.8705 108.5684 0007600 152.8727 207.2658 15.36922297  2106
KUIPER-00263            
1 68586U 26072P   26107.87903901  .00012653  00000+0  33746-3 0  9995
2 68586  51.8753 108.4707 0002082  83.6014 276.5210 15.38505965  2108
KUIPER-00269            
1 68587U 26072Q   26107.88643284  .00011120  00000+0  30603-3 0  9999
2 68587  51.8728 108.5237 0004517 129.8580 230.2805 15.37665198  2107
KUIPER-00272            
1 68588U 26072R   26107.88884342  .00011067  00000+0  30684-3 0  9991
2 68588  51.8712 108.5397 0005799 144.5630 215.5743 15.37434103  2108
KUIPER-00285            
1 68589U 26072S   26107.88973118  .00011012  00000+0  30626-3 0  9998
2 68589  51.8722 108.5453 0006269 150.8397 209.2941 15.37341864  2107
KUIPER-00286            
1 68590U 26072T   26107.88594172  .00011410  00000+0  31272-3 0  9999
2 68590  51.8720 108.5213 0004183 132.8353 227.2986 15.37765200  2109
KUIPER-00289            
1 68591U 26072U   26107.90143877  .00009078  00000+0  26505-3 0  9995
2 68591  51.8645 108.6181 0010700 167.2073 192.9187 15.36021111  2100
KUIPER-00290            
1 68592U 26072V   26107.96590853  .00013773  00000+0  39577-3 0  9992
2 68592  51.8631 108.2992 0010909 164.6345 195.4974 15.36054678  2113
KUIPER-00293            
1 68593U 26072W   26107.90394826 -.00010710  00000+0 -29321-3 0  9995
2 68593  51.8629 108.6329 0011439 168.7694 191.3549 15.35625648  2102
KUIPER-00294            
1 68594U 26072X   26107.89892620  .00013732  00000+0  39179-3 0  9996
2 68594  51.8667 108.6034 0009599 164.2836 195.8450 15.36293990  2103
